COMMENT,ORIGINATOR,NORAD_CAT_ID,OBJECT_NAME,OBJECT_TYPE,CLASSIFICATION_TYPE,INTLDES,EPOCH,EPOCH_MICROSECONDS,MEAN_MOTION,ECCENTRICITY,INCLINATION,RA_OF_ASC_NODE,ARG_OF_PERICENTER,MEAN_ANOMALY,EPHEMERIS_TYPE,ELEMENT_SET_NO,REV_AT_EPOCH,BSTAR,MEAN_MOTION_DOT,MEAN_MOTION_DDOT,FILE,TLE_LINE0,TLE_LINE1,TLE_LINE2,OBJECT_ID,OBJECT_NUMBER,SEMIMAJOR_AXIS,PERIOD,APOGEE,PERIGEE
"GENERATED VIA SPACETRACK.ORG API","JSPOC","24713","AMC-2 (GE-2)","PAYLOAD","U","97002A","2016-01-11 12:51:38","422368","1.00271803","0.0005139","3.3565","68.791","223.805","289.9224","0","999","6938","0","-2.28e-06","0","1979502","0 AMC-2 (GE-2)","1 24713U 97002A   16011.53586137 -.00000228 +00000-0 +00000-0 0  9995","2 24713 003.3565 068.7910 0005139 223.8050 289.9224 01.00271803069384","1997-002A","24713","42164.726","1436.096","35808.260","35764.923"
"GENERATED VIA SPACETRACK.ORG API","JSPOC","33373","NIMIQ 4","PAYLOAD","U","08044A","2016-01-11 12:51:38","422368","1.00266464","0.0002561","0.0351","72.8527","235.6386","272.9322","0","999","2677","0","-2.19e-06","0","1979502","0 NIMIQ 4","1 33373U 08044A   16011.53586137 -.00000219 +00000-0 +00000-0 0  9995","2 33373 000.0351 072.8527 0002561 235.6386 272.9322 01.00266464026776","2008-044A","33373","42166.223","1436.173","35798.887","35777.289"
"GENERATED VIA SPACETRACK.ORG API","JSPOC","23548","PEGASUS R/B","ROCKET BODY","U","95017D","2016-01-11 12:51:54","307872","14.50293103","0.0008669","69.9897","83.706","145.1656","313.5706","0","999","9828","5.0994e-05","1.37e-06","0","1978922","0 PEGASUS R/B","1 23548U 95017D   16011.53604523  .00000137  00000-0  50994-4 0  9993","2 23548  69.9897  83.7060 0008669 145.1656 313.5706 14.50293103 98283","1995-017D","23548","7102.828","99.290","730.850","718.535"
"GENERATED VIA SPACETRACK.ORG API","JSPOC","19324","COSMOS 1959","PAYLOAD","U","88062A","2016-01-11 12:52:00","601248","13.76045961","0.0033314","82.9499","67.4365","332.2994","137.7396","0","999","38000","3.9031e-05","5.3e-07","0","1978892","0 COSMOS 1959","1 19324U 88062A   16011.53611807  .00000053  00000-0  39031-4 0  9991","2 19324  82.9499  67.4365 0033314 332.2994 137.7396 13.76045961380008","1988-062A","19324","7356.081","104.647","1002.452","953.440"
"GENERATED VIA SPACETRACK.ORG API","JSPOC","11881","COSMOS 1198","PAYLOAD","U","80058G","2016-01-11 12:52:07","330944","12.43744373","0.0021464","74.0154","182.1072","93.9158","322.6837","0","999","61242","-0.00010993","-3.1e-07","0","1978905","0 COSMOS 1198","1 11881U 80058G   16011.53619596 -.00000031  00000-0 -10993-3 0  9994","2 11881  74.0154 182.1072 0021464  93.9158 322.6837 12.43744373612429","1980-058G","11881","7868.907","115.779","1507.661","1473.882"
"GENERATED VIA SPACETRACK.ORG API","JSPOC","36520","SL-8 R/B","ROCKET BODY","U","10017B","2016-01-11 12:52:11","777088","13.72686038","0.0034384","82.9601","164.578","235.982","191.45","0","999","28606","0.00012475","1.3e-06","0","1979000","0 SL-8 R/B","1 36520U 10017B   16011.53624742  .00000130  00000-0  12475-3 0  9993","2 36520  82.9601 164.5780 0034384 235.9820 191.4500 13.72686038286062","2010-017B","36520","7368.080","104.903","1015.279","964.611"
"GENERATED VIA SPACETRACK.ORG API","JSPOC","20168","TVSAT 2","PAYLOAD","U","89062A","2016-01-11 12:52:21","853920","0.99842151","0.000527","13.7204","29.2954","181.9341","3.4041","0","999","9646","0","-1.44e-06","0","1979502","0 TVSAT 2","1 20168U 89062A   16011.53636405 -.00000144 +00000-0 +00000-0 0  9993","2 20168 013.7204 029.2954 0005270 181.9341 003.4041 00.99842151096464","1989-062A","20168","42285.605","1442.276","35929.755","35885.186"
"GENERATED VIA SPACETRACK.ORG API","JSPOC","40901","ZDPS 2A","PAYLOAD","U","15049C","2016-01-11 12:52:22","578816","15.14063743","0.0013295","97.4608","22.3677","234.9329","243.475","0","999","1718","0.00017125","3.055e-05","0","1978893","0 ZDPS 2A","1 40901U 15049C   16011.53637244  .00003055  00000-0  17125-3 0  9998","2 40901  97.4608  22.3677 0013295 234.9329 243.4750 15.14063743 17185","2015-049C","40901","6901.959","95.108","533.000","514.648"
"GENERATED VIA SPACETRACK.ORG API","JSPOC","27820","AMC-9 (GE-12)","PAYLOAD","U","03024A","2016-01-11 12:53:05","686368","1.0027164","0.0003059","0.0174","346.9691","307.7969","285.967","0","999","4618","0","-2.14e-06","0","1979502","0 AMC-9 (GE-12)","1 27820U 03024A   16011.53687137 -.00000214 +00000-0 +00000-0 0  9995","2 27820 000.0174 346.9691 0003059 307.7969 285.9670 01.00271640046186","2003-024A","27820","42164.772","1436.098","35799.535","35773.739"
"GENERATED VIA SPACETRACK.ORG API","JSPOC","14590","COSMOS 1519 (GLONASS)","PAYLOAD","U","83127A","2016-01-11 12:53:14","901792","2.13101118","0.0012326","65.6638","93.7864","194.6295","218.4201","0","999","19002","0","9e-08","0","1978889","0 COSMOS 1519 (GLONASS)","1 14590U 83127A   16011.53697803  .00000009  00000-0  00000+0 0  9998","2 14590  65.6638  93.7864 0012326 194.6295 218.4201  2.13101118190020","1983-127A","14590","25508.094","675.735","19161.401","19098.518"
"GENERATED VIA SPACETRACK.ORG API","JSPOC","27376","IRIDIUM 96","PAYLOAD","U","02005E","2016-01-11 12:53:34","385856","14.34215403","0.0003207","86.4008","177.5014","68.2262","291.9275","0","999","74120","-1.3973e-06","1.6e-07","0","1979040","0 IRIDIUM 96","1 27376U 02005E   16011.53720354  .00000016  00000-0 -13973-5 0  9996","2 27376  86.4008 177.5014 0003207  68.2262 291.9275 14.34215403741202","2002-005E","27376","7155.811","100.403","779.971","775.382"
"GENERATED VIA SPACETRACK.ORG API","JSPOC","11750","COSMOS 1171","PAYLOAD","U","80026A","2016-01-11 12:53:47","353632","13.73693156","0.0022544","65.8417","140.1221","341.83","93.2259","0","999","79450","-1.048e-05","-9e-07","0","1978984","0 COSMOS 1171","1 11750U 80026A   16011.53735363 -.00000090  00000-0 -10480-4 0  9992","2 11750  65.8417 140.1221 0022544 341.8300  93.2259 13.73693156794503","1980-026A","11750","7364.478","104.826","1002.946","969.741"
"GENERATED VIA SPACETRACK.ORG API","JSPOC","33408","SJ-6E","PAYLOAD","U","08053A","2016-01-11 12:54:00","693792","14.9335263","0.0017059","97.5901","4.4728","177.2332","182.9001","0","999","39277","7.3719e-05","7.2e-06","0","1978991","0 SJ-6E","1 33408U 08053A   16011.53750803  .00000720  00000-0  73719-4 0  9994","2 33408  97.5901   4.4728 0017059 177.2332 182.9001 14.93352630392778","2008-053A","33408","6965.627","96.427","599.375","575.610"
"GENERATED VIA SPACETRACK.ORG API","JSPOC","12808","COSMOS 1299 FUEL CORE","PAYLOAD","U","81081C","2016-01-11 12:54:04","290624","13.88590016","0.0015949","65.1161","24.0878","4.0508","124.1191","0","999","74341","-3.5552e-07","-8.9e-07","0","1979502","0 COSMOS 1299 FUEL CORE","1 12808U 81081C   16011.53754966 -.00000089 +00000-0 -35552-6 0  9996","2 12808 065.1161 024.0878 0015949 004.0508 124.1191 13.88590016743414","1981-081C","12808","7311.713","103.702","945.239","921.916"
"GENERATED VIA SPACETRACK.ORG API","JSPOC","36131","DIRECTV 12","PAYLOAD","U","09075A","2016-01-11 12:54:06","975936","1.00269503","2.83e-05","0.0109","181.9341","80.9165","298.3638","0","999","2218","0","-1.02e-06","0","1979089","0 DIRECTV 12","1 36131U 09075A   16011.53758074 -.00000102  00000-0  00000+0 0  9996","2 36131   0.0109 181.9341 0000283  80.9165 298.3638  1.00269503 22183","2009-075A","36131","42165.371","1436.129","35788.429","35786.043"
"GENERATED VIA SPACETRACK.ORG API","JSPOC","28644","SPACEWAY 1","PAYLOAD","U","05015A","2016-01-11 12:54:06","975936","1.00273036","2.86e-05","0.0079","239.3486","335.3964","346.3344","0","999","3931","0","-1.01e-06","0","1979112","0 SPACEWAY 1","1 28644U 05015A   16011.53758074 -.00000101  00000-0  00000+0 0  9995","2 28644   0.0079 239.3486 0000286 335.3964 346.3344  1.00273036 39311","2005-015A","28644","42164.381","1436.078","35787.452","35785.040"
"GENERATED VIA SPACETRACK.ORG API","JSPOC","28470","JB-3 C","PAYLOAD","U","04044A","2016-01-11 12:54:13","49856","15.01602525","0.0036625","97.359","313.0779","316.3047","43.5266","0","999","61449","4.6234e-05","5.49e-06","0","1979008","0 JB-3 C","1 28470U 04044A   16011.53765104  .00000549  00000-0  46234-4 0  9994","2 28470  97.3590 313.0779 0036625 316.3047  43.5266 15.01602525614499","2004-044A","28470","6940.091","95.897","587.374","536.538"
"GENERATED VIA SPACETRACK.ORG API","JSPOC","38338","KOMPSAT 3","PAYLOAD","U","12025B","2016-01-11 12:54:39","611808","14.61344019","0.0009956","98.1488","310.7502","160.3221","199.8356","0","999","19484","4.4264e-05","1.72e-06","0","1979008","0 KOMPSAT 3","1 38338U 12025B   16011.53795847  .00000172  00000-0  44264-4 0  9996","2 38338  98.1488 310.7502 0009956 160.3221 199.8356 14.61344019194847","2012-025B","38338","7066.974","98.539","695.875","681.803"
"GENERATED VIA SPACETRACK.ORG API","JSPOC","3576","COSMOS 256","PAYLOAD","U","68106A","2016-01-11 12:54:51","135840","13.16789417","0.0032711","74.0487","41.0195","90.4577","19.67","0","999","26461","0.0003234","1.06e-06","0","1978901","0 COSMOS 256","1 03576U 68106A   16011.53809185  .00000106  00000-0  32340-3 0  9992","2 03576  74.0487  41.0195 0032711  90.4577  19.6700 13.16789417264618","1968-106A","3576","7575.145","109.356","1221.789","1172.231"
"GENERATED VIA SPACETRACK.ORG API","JSPOC","11623","TITAN 3C TRANSTAGE R/B","ROCKET BODY","U","79098C","2016-01-11 12:54:53","829792","0.95318285","0.0311676","16.9301","342.605","335.3496","230.1255","0","999","8627","0","-1.12e-06","0","1979502","0 TITAN 3C TRANSTAGE R/B","1 11623U 79098C   16011.53812303 -.00000112 +00000-0 +00000-0 0  9995","2 11623 016.9301 342.6050 0311676 335.3496 230.1255 00.95318285086274","1979-098C","11623","43613.174","1510.727","38594.357","35875.721"
